NORAD_CAT_ID,OBJECT_NAME,OBJECT_TYPE,EPOCH,MEAN_MOTION,ECCENTRICITY,INCLINATION,RA_OF_ASC_NODE,ARG_OF_PERICENTER,MEAN_ANOMALY,BSTAR,MEAN_MOTION_DOT,MEAN_MOTION_DDOT,TLE_LINE0,TLE_LINE1,TLE_LINE2,SEMIMAJOR_AXIS,PERIOD,APOGEE,PERIGEE,DECAYED
52354.0,STARLINK-3876,PAYLOAD,2023-11-14 22:06:11,15.08838565,0.0001498,53.2184,35.9294,92.7116,267.4048,-4.2507e-05,-9.64e-06,0.0,0 STARLINK-3876,1 52354U 22045Z   23318.92097037 -.00000964  00000-0 -42507-4 0  9999,2 52354  53.2184  35.9294 0001498  92.7116 267.4048 15.08838565 88101,6917.885,95.438,540.786,538.713,0.0
52354.0,STARLINK-3876,PAYLOAD,2023-11-15 12:24:40,15.08841271,0.000162,53.2186,33.2553,103.6405,256.4767,-2.3532e-05,-6.63e-06,0.0,0 STARLINK-3876,1 52354U 22045Z   23319.51713020 -.00000663  00000-0 -23532-4 0  9995,2 52354  53.2186  33.2553 0001620 103.6405 256.4767 15.08841271 88195,6917.877,95.437,540.862,538.621,0.0
52354.0,STARLINK-3876,PAYLOAD,2023-11-15 21:56:59,15.08839227,0.0001455,53.2181,31.4696,95.801,264.3148,-1.1806e-05,-4.76e-06,0.0,0 STARLINK-3876,1 52354U 22045Z   23319.91457222 -.00000476  00000-0 -11806-4 0  9991,2 52354  53.2181  31.4696 0001455  95.8010 264.3148 15.08839227 88254,6917.883,95.438,540.754,538.741,0.0
52354.0,STARLINK-3876,PAYLOAD,2023-11-16 13:50:50,15.08840907,0.0001613,53.2185,28.4961,97.255,262.8626,0.00018382,2.639e-05,0.0,0 STARLINK-3876,1 52354U 22045Z   23320.57697400  .00002639  00000-0  18382-3 0  9995,2 52354  53.2185  28.4961 0001613  97.2550 262.8626 15.08840907 88352,6917.878,95.437,540.858,538.627,0.0
52354.0,STARLINK-3876,PAYLOAD,2023-11-16 21:47:46,15.08835706,0.0001753,53.218,27.0048,85.4476,274.6716,-2.3773e-05,-6.66e-06,0.0,0 STARLINK-3876,1 52354U 22045Z   23320.90817791 -.00000666  00000-0 -23773-4 0  9990,2 52354  53.2180  27.0048 0001753  85.4476 274.6716 15.08835706 88407,6917.894,95.438,540.971,538.546,0.0
52354.0,STARLINK-3876,PAYLOAD,2023-11-17 04:09:19,15.08834445,0.0001527,53.2177,25.8193,87.0538,273.0628,5.953e-05,6.59e-06,0.0,0 STARLINK-3876,1 52354U 22045Z   23321.17313951  .00000659  00000-0  59530-4 0  9999,2 52354  53.2177  25.8193 0001527  87.0538 273.0628 15.08834445 88444,6917.897,95.438,540.819,538.706,0.0
52354.0,STARLINK-3876,PAYLOAD,2023-11-17 12:06:15,15.08837691,0.0001534,53.2184,24.3327,89.3468,270.77,7.6308e-05,9.27e-06,0.0,0 STARLINK-3876,1 52354U 22045Z   23321.50434106  .00000927  00000-0  76308-4 0  9992,2 52354  53.2184  24.3327 0001534  89.3468 270.7700 15.08837691 88496,6917.887,95.438,540.814,538.691,0.0
52354.0,STARLINK-3876,PAYLOAD,2023-11-17 21:38:33,15.08840263,0.0001475,53.2182,22.5481,88.2241,271.892,0.00010077,1.316e-05,0.0,0 STARLINK-3876,1 52354U 22045Z   23321.90177868  .00001316  00000-0  10077-3 0  9998,2 52354  53.2182  22.5481 0001475  88.2241 271.8920 15.08840263 88558,6917.88,95.438,540.765,538.724,0.0
52354.0,STARLINK-3876,PAYLOAD,2023-11-18 10:21:38,15.08852773,0.0001313,53.2173,20.1688,91.4457,268.6685,3.8387e-05,3.23e-06,0.0,0 STARLINK-3876,1 52354U 22045Z   23322.43169268  .00000323  00000-0  38387-4 0  9994,2 52354  53.2173  20.1688 0001313  91.4457 268.6685 15.08852773 88637,6917.841,95.437,540.615,538.798,0.0
52354.0,STARLINK-3876,PAYLOAD,2023-11-18 21:29:20,15.08842306,0.000139,53.217,18.0872,85.6119,274.5032,0.00013491,1.86e-05,0.0,0 STARLINK-3876,1 52354U 22045Z   23322.89537510  .00001860  00000-0  13491-3 0  9998,2 52354  53.2170  18.0872 0001390  85.6119 274.5032 15.08842306 88701,6917.873,95.437,540.7,538.777,0.0
52354.0,STARLINK-3876,PAYLOAD,2023-11-19 10:12:26,15.08826557,0.0001307,53.2181,15.7091,78.5463,281.5675,-1.9457e-06,-3.19e-06,0.0,0 STARLINK-3876,1 52354U 22045Z   23323.42531133 -.00000319  00000-0 -19457-5 0  9993,2 52354  53.2181  15.7091 0001307  78.5463 281.5675 15.08826557 88780,6917.921,95.438,540.691,538.882,0.0
52354.0,STARLINK-3876,PAYLOAD,2023-11-20 03:41:41,15.08837128,0.0001742,53.2171,12.4386,77.8197,282.299,-0.00010058,-1.888e-05,0.0,0 STARLINK-3876,1 52354U 22045Z   23324.15395118 -.00001888  00000-0 -10058-3 0  9993,2 52354  53.2171  12.4386 0001742  77.8197 282.2990 15.08837128 88895,6917.889,95.438,540.959,538.549,0.0
52354.0,STARLINK-3876,PAYLOAD,2023-11-20 10:03:13,15.08842464,0.0001377,53.2168,11.2473,85.9904,274.1245,8.82e-05,1.116e-05,0.0,0 STARLINK-3876,1 52354U 22045Z   23324.41890457  .00001116  00000-0  88200-4 0  9995,2 52354  53.2168  11.2473 0001377  85.9904 274.1245 15.08842464 88932,6917.873,95.437,540.69,538.785,0.0
52354.0,STARLINK-3876,PAYLOAD,2023-11-20 11:38:36,15.08843472,0.0001408,53.2162,10.9495,84.4458,275.6695,0.00016313,2.309e-05,0.0,0 STARLINK-3876,1 52354U 22045Z   23324.48514498  .00002309  00000-0  16313-3 0  9990,2 52354  53.2162  10.9495 0001408  84.4458 275.6695 15.08843472 88945,6917.87,95.437,540.709,538.761,0.0
52354.0,STARLINK-3876,PAYLOAD,2023-11-21 03:32:26,15.08860459,0.0001398,53.2165,7.9761,80.2727,279.8423,3.3465e-06,-2.35e-06,0.0,0 STARLINK-3876,1 52354U 22045Z   23325.14753434 -.00000235  00000-0  33465-5 0  9995,2 52354  53.2165   7.9761 0001398  80.2727 279.8423 15.08860459 89042,6917.818,95.436,540.65,538.716,0.0
52354.0,STARLINK-3876,PAYLOAD,2023-11-21 11:29:22,15.08880869,0.0001554,53.2169,6.4891,82.0814,278.0355,0.0011913,0.00018744,0.0,0 STARLINK-3876,1 52354U 22045Z   23325.47873561  .00018744  00000-0  11913-2 0  9999,2 52354  53.2169   6.4891 0001554  82.0814 278.0355 15.08880869 89092,6917.755,95.435,540.695,538.545,0.0
52354.0,STARLINK-3876,PAYLOAD,2023-11-22 11:20:09,15.08868087,0.0001419,53.217,2.0286,89.7756,270.3399,0.00089882,0.00014057,0.0,0 STARLINK-3876,1 52354U 22045Z   23326.47232992  .00014057  00000-0  89882-3 0  9991,2 52354  53.2170   2.0286 0001419  89.7756 270.3399 15.08868087 89241,6917.795,95.436,540.641,538.678,0.0
52354.0,STARLINK-3876,PAYLOAD,2023-11-23 11:10:56,15.08837577,0.0001552,53.2168,357.5675,91.8614,268.2556,0.00033117,4.986e-05,0.0,0 STARLINK-3876,1 52354U 22045Z   23327.46593639  .00004986  00000-0  33117-3 0  9999,2 52354  53.2168 357.5675 0001552  91.8614 268.2556 15.08837577 89390,6917.888,95.438,540.826,538.679,0.0
52354.0,STARLINK-3876,PAYLOAD,2023-11-23 12:46:20,15.08838056,0.0001541,53.2168,357.2697,91.1321,268.9848,0.00038836,5.898e-05,0.0,0 STARLINK-3876,1 52354U 22045Z   23327.53217670  .00005898  00000-0  38836-3 0  9991,2 52354  53.2168 357.2697 0001541  91.1321 268.9848 15.08838056 89403,6917.886,95.438,540.817,538.685,0.0
52354.0,STARLINK-3876,PAYLOAD,2023-11-24 01:29:25,15.08826044,0.000163,53.2167,354.8859,124.1732,235.9415,-2.207e-05,-6.39e-06,0.0,0 STARLINK-3876,1 52354U 22045Z   23328.06210021 -.00000639  00000-0 -22070-4 0  9997,2 52354  53.2167 354.8859 0001630 124.1732 235.9415 15.08826044 89483,6917.923,95.438,540.916,538.66,0.0
52354.0,STARLINK-3876,PAYLOAD,2023-11-24 11:01:44,15.08835206,0.0001607,53.2159,353.1045,102.5004,257.6168,0.0010475,0.0001642,0.0,0 STARLINK-3876,1 52354U 22045Z   23328.45954625  .00016420  00000-0  10475-2 0  9992,2 52354  53.2159 353.1045 0001607 102.5004 257.6168 15.08835206 89542,6917.895,95.438,540.872,538.648,0.0
52354.0,STARLINK-3876,PAYLOAD,2023-11-25 09:17:08,15.08847499,0.0001874,53.2168,348.942,79.3881,280.7322,0.00056574,8.729e-05,0.0,0 STARLINK-3876,1 52354U 22045Z   23329.38690700  .00008729  00000-0  56574-3 0  9990,2 52354  53.2168 348.9420 0001874  79.3881 280.7322 15.08847499 89682,6917.857,95.437,541.019,538.426,0.0
52354.0,STARLINK-3876,PAYLOAD,2023-11-26 07:32:31,15.08863233,0.000213,53.2166,344.7822,67.9196,292.2022,0.0005466,8.427e-05,0.0,0 STARLINK-3876,1 52354U 22045Z   23330.31425819  .00008427  00000-0  54660-3 0  9991,2 52354  53.2166 344.7822 0002130  67.9196 292.2022 15.08863233 89823,6917.809,95.436,541.148,538.201,0.0
52354.0,STARLINK-3876,PAYLOAD,2023-11-27 04:12:34,15.08819708,0.0001767,53.2171,340.9146,84.1335,275.9858,-0.00034605,-5.788e-05,0.0,0 STARLINK-3876,1 52354U 22045Z   23331.17539364 -.00005788  00000-0 -34605-3 0  9993,2 52354  53.2171 340.9146 0001767  84.1335 275.9858 15.08819708 89954,6917.942,95.439,541.03,538.585,0.0
52354.0,STARLINK-3876,PAYLOAD,2023-11-27 10:34:07,15.08813646,0.000165,53.2167,339.726,69.8786,290.2383,-0.00035637,-5.951e-05,0.0,0 STARLINK-3876,1 52354U 22045Z   23331.44036263 -.00005951  00000-0 -35637-3 0  9991,2 52354  53.2167 339.7260 0001650  69.8786 290.2383 15.08813646 89995,6917.961,95.439,540.967,538.684,0.0
52354.0,STARLINK-3876,PAYLOAD,2023-11-28 00:52:34,15.08840447,0.0001787,53.2173,337.0479,80.3039,279.8155,0.00020867,3.035e-05,0.0,0 STARLINK-3876,1 52354U 22045Z   23332.03651200  .00003035  00000-0  20867-3 0  9999,2 52354  53.2173 337.0479 0001787  80.3039 279.8155 15.08840447 90086,6917.879,95.438,540.98,538.508,0.0
52354.0,STARLINK-3876,PAYLOAD,2023-11-28 10:24:49,15.08930227,0.000163,53.2177,335.2631,73.5656,286.5515,0.0019085,0.00030292,0.0,0 STARLINK-3876,1 52354U 22045Z   23332.43391190  .00030292  00000-0  19085-2 0  9996,2 52354  53.2177 335.2631 0001630  73.5656 286.5515 15.08930227 90144,6917.605,95.432,540.597,538.342,0.0
52354.0,STARLINK-3876,PAYLOAD,2023-11-29 03:54:07,15.08815279,0.0001502,53.2173,331.9924,48.6895,311.4226,-0.0004811,-7.931e-05,0.0,0 STARLINK-3876,1 52354U 22045Z   23333.16258981 -.00007931  00000-0 -48110-3 0  9995,2 52354  53.2173 331.9924 0001502  48.6895 311.4226 15.08815279 90252,6917.956,95.439,540.86,538.782,0.0
52354.0,STARLINK-3876,PAYLOAD,2023-11-29 10:15:39,15.08826913,0.0001514,53.2168,330.8027,89.6497,270.4669,-0.00037754,-6.289e-05,0.0,0 STARLINK-3876,1 52354U 22045Z   23333.42754614 -.00006289  00000-0 -37754-3 0  9995,2 52354  53.2168 330.8027 0001514  89.6497 270.4669 15.08826913 90290,6917.92,95.438,540.833,538.738,0.0
52354.0,STARLINK-3876,PAYLOAD,2023-11-30 03:44:54,15.08831881,0.0001431,53.217,327.5335,82.0165,278.0989,-0.00041029,-6.81e-05,0.0,0 STARLINK-3876,1 52354U 22045Z   23334.15618434 -.00006810  00000-0 -41029-3 0  9995,2 52354  53.2170 327.5335 0001431  82.0165 278.0989 15.08831881 90407,6917.905,95.438,540.76,538.78,0.0
